{
  "type": "FeatureCollection",
  "features": [
    {
      "type": "Feature",
      "properties": {
        "norad_id": 66726,
        "name": "FLOCK 4H-23",
        "group": "last-30-days",
        "lat": -28.683276407719656,
        "lon": -111.49609825612164,
        "alt_km": 518.5143395396126,
        "timestamp": "2025-12-27T02:10:14.907019+00:00",
        "meta_object_name": "FLOCK 4H-23",
        "meta_object_id": "2025-276BN",
        "meta_epoch": "2025-12-26T15:45:24.250752",
        "meta_mean_motion": 15.17319733,
        "meta_eccentricity": 0.0002119,
        "meta_inclination": 97.4424,
        "meta_ra_of_asc_node": 72.1788,
        "meta_arg_of_pericenter": 243.2327,
        "meta_mean_anomaly": 116.869,
        "meta_ephemeris_type": 0,
        "meta_classification_type": "U",
        "meta_norad_cat_id": 66726,
        "meta_element_set_no": 999,
        "meta_rev_at_epoch": 423,
        "meta_bstar": 0.0027054,
        "meta_mean_motion_dot": 0.0005424,
        "meta_mean_motion_ddot": 0,
        "tle_line1": "1 66726U 25276BN  25360.65653068  .00054240  00000+0  27054-2 0  9998",
        "tle_line2": "2 66726  97.4424  72.1788 0002119 243.2327 116.8690 15.17319733  4238"
      },
      "geometry": {
        "type": "Point",
        "coordinates": [
          -111.49609825612164,
          -28.683276407719656
        ]
      }
    },
    {
      "type": "Feature",
      "properties": {
        "norad_id": 66727,
        "name": "FLOCK 4H-24",
        "group": "last-30-days",
        "lat": -39.15122263198388,
        "lon": -113.49701672600749,
        "alt_km": 518.4424597670422,
        "timestamp": "2025-12-27T02:10:14.907032+00:00",
        "meta_object_name": "FLOCK 4H-24",
        "meta_object_id": "2025-276BP",
        "meta_epoch": "2025-12-26T18:52:32.348064",
        "meta_mean_motion": 15.173745,
        "meta_eccentricity": 0.0002924,
        "meta_inclination": 97.4434,
        "meta_ra_of_asc_node": 72.3146,
        "meta_arg_of_pericenter": 242.8134,
        "meta_mean_anomaly": 117.2802,
        "meta_ephemeris_type": 0,
        "meta_classification_type": "U",
        "meta_norad_cat_id": 66727,
        "meta_element_set_no": 999,
        "meta_rev_at_epoch": 425,
        "meta_bstar": 0.00028962,
        "meta_mean_motion_dot": 5.718e-05,
        "meta_mean_motion_ddot": 0,
        "tle_line1": "1 66727U 25276BP  25360.78648551  .00005718  00000+0  28962-3 0  9990",
        "tle_line2": "2 66727  97.4434  72.3146 0002924 242.8134 117.2802 15.17374500  4250"
      },
      "geometry": {
        "type": "Point",
        "coordinates": [
          -113.49701672600749,
          -39.15122263198388
        ]
      }
    },
    {
      "type": "Feature",
      "properties": {
        "norad_id": 66728,
        "name": "FLOCK 4H-25",
        "group": "last-30-days",
        "lat": -49.64052443467775,
        "lon": 81.47677865157527,
        "alt_km": 519.1704544949216,
        "timestamp": "2025-12-27T02:10:14.907042+00:00",
        "meta_object_name": "FLOCK 4H-25",
        "meta_object_id": "2025-276BQ",
        "meta_epoch": "2025-12-26T18:28:58.309248",
        "meta_mean_motion": 15.18261428,
        "meta_eccentricity": 0.0001746,
        "meta_inclination": 97.4391,
        "meta_ra_of_asc_node": 72.3176,
        "meta_arg_of_pericenter": 113.9532,
        "meta_mean_anomaly": 246.1885,
        "meta_ephemeris_type": 0,
        "meta_classification_type": "U",
        "meta_norad_cat_id": 66728,
        "meta_element_set_no": 999,
        "meta_rev_at_epoch": 353,
        "meta_bstar": 0.00030761,
        "meta_mean_motion_dot": 6.235e-05,
        "meta_mean_motion_ddot": 0,
        "tle_line1": "1 66728U 25276BQ  25360.77011932  .00006235  00000+0  30761-3 0  9992",
        "tle_line2": "2 66728  97.4391  72.3176 0001746 113.9532 246.1885 15.18261428  3535"
      },
      "geometry": {
        "type": "Point",
        "coordinates": [
          81.47677865157527,
          -49.64052443467775
        ]
      }
    },
    {
      "type": "Feature",
      "properties": {
        "norad_id": 66729,
        "name": "FLOCK 4H-26",
        "group": "last-30-days",
        "lat": -19.397678117752505,
        "lon": -110.0523163303901,
        "alt_km": 517.5476044088673,
        "timestamp": "2025-12-27T02:10:14.907052+00:00",
        "meta_object_name": "FLOCK 4H-26",
        "meta_object_id": "2025-276BR",
        "meta_epoch": "2025-12-26T15:47:49.095168",
        "meta_mean_motion": 15.17202885,
        "meta_eccentricity": 0.0003546,
        "meta_inclination": 97.4388,
        "meta_ra_of_asc_node": 72.1602,
        "meta_arg_of_pericenter": 238.163,
        "meta_mean_anomaly": 121.9259,
        "meta_ephemeris_type": 0,
        "meta_classification_type": "U",
        "meta_norad_cat_id": 66729,
        "meta_element_set_no": 999,
        "meta_rev_at_epoch": 423,
        "meta_bstar": 0.000434,
        "meta_mean_motion_dot": 8.564e-05,
        "meta_mean_motion_ddot": 0,
        "tle_line1": "1 66729U 25276BR  25360.65820712  .00008564  00000+0  43400-3 0  9995",
        "tle_line2": "2 66729  97.4388  72.1602 0003546 238.1630 121.9259 15.17202885  4237"
      },
      "geometry": {
        "type": "Point",
        "coordinates": [
          -110.0523163303901,
          -19.397678117752505
        ]
      }
    },
    {
      "type": "Feature",
      "properties": {
        "norad_id": 66730,
        "name": "FLOCK 4H-27",
        "group": "last-30-days",
        "lat": -62.85175219086939,
        "lon": 87.37440997626379,
        "alt_km": 519.6016460896053,
        "timestamp": "2025-12-27T02:10:14.907064+00:00",
        "meta_object_name": "FLOCK 4H-27",
        "meta_object_id": "2025-276BS",
        "meta_epoch": "2025-12-26T16:57:36.792576",
        "meta_mean_motion": 15.18133982,
        "meta_eccentricity": 0.0001364,
        "meta_inclination": 97.4366,
        "meta_ra_of_asc_node": 72.2402,
        "meta_arg_of_pericenter": 128.1634,
        "meta_mean_anomaly": 231.9723,
        "meta_ephemeris_type": 0,
        "meta_classification_type": "U",
        "meta_norad_cat_id": 66730,
        "meta_element_set_no": 999,
        "meta_rev_at_epoch": 424,
        "meta_bstar": 0.00049621,
        "meta_mean_motion_dot": 0.00010067,
        "meta_mean_motion_ddot": 0,
        "tle_line1": "1 66730U 25276BS  25360.70667584  .00010067  00000+0  49621-3 0  9991",
        "tle_line2": "2 66730  97.4366  72.2402 0001364 128.1634 231.9723 15.18133982  4243"
      },
      "geometry": {
        "type": "Point",
        "coordinates": [
          87.37440997626379,
          -62.85175219086939
        ]
      }
    },
    {
      "type": "Feature",
      "properties": {
        "norad_id": 66731,
        "name": "FLOCK 4H-28",
        "group": "last-30-days",
        "lat": -20.901178242968847,
        "lon": -110.27844823899716,
        "alt_km": 517.9378412230399,
        "timestamp": "2025-12-27T02:10:14.907075+00:00",
        "meta_object_name": "FLOCK 4H-28",
        "meta_object_id": "2025-276BT",
        "meta_epoch": "2025-12-26T15:47:24.703584",
        "meta_mean_motion": 15.17188095,
        "meta_eccentricity": 0.0003324,
        "meta_inclination": 97.4377,
        "meta_ra_of_asc_node": 72.1566,
        "meta_arg_of_pericenter": 243.5309,
        "meta_mean_anomaly": 116.5584,
        "meta_ephemeris_type": 0,
        "meta_classification_type": "U",
        "meta_norad_cat_id": 66731,
        "meta_element_set_no": 999,
        "meta_rev_at_epoch": 423,
        "meta_bstar": 0.00050487,
        "meta_mean_motion_dot": 9.97e-05,
        "meta_mean_motion_ddot": 0,
        "tle_line1": "1 66731U 25276BT  25360.65792481  .00009970  00000+0  50487-3 0  9994",
        "tle_line2": "2 66731  97.4377  72.1566 0003324 243.5309 116.5584 15.17188095  4231"
      },
      "geometry": {
        "type": "Point",
        "coordinates": [
          -110.27844823899716,
          -20.901178242968847
        ]
      }
    },
    {
      "type": "Feature",
      "properties": {
        "norad_id": 66732,
        "name": "FLOCK 4H-29",
        "group": "last-30-days",
        "lat": -35.5751825249916,
        "lon": -112.77844103144291,
        "alt_km": 518.4909778808769,
        "timestamp": "2025-12-27T02:10:14.907085+00:00",
        "meta_object_name": "FLOCK 4H-29",
        "meta_object_id": "2025-276BU",
        "meta_epoch": "2025-12-26T14:08:41.141184",
        "meta_mean_motion": 15.17472042,
        "meta_eccentricity": 0.0001851,
        "meta_inclination": 97.4362,
        "meta_ra_of_asc_node": 72.0901,
        "meta_arg_of_pericenter": 253.8548,
        "meta_mean_anomaly": 106.2482,
        "meta_ephemeris_type": 0,
        "meta_classification_type": "U",
        "meta_norad_cat_id": 66732,
        "meta_element_set_no": 999,
        "meta_rev_at_epoch": 422,
        "meta_bstar": 0.0051508,
        "meta_mean_motion_dot": 0.00104497,
        "meta_mean_motion_ddot": 0,
        "tle_line1": "1 66732U 25276BU  25360.58936506  .00104497  00000+0  51508-2 0  9999",
        "tle_line2": "2 66732  97.4362  72.0901 0001851 253.8548 106.2482 15.17472042  4220"
      },
      "geometry": {
        "type": "Point",
        "coordinates": [
          -112.77844103144291,
          -35.5751825249916
        ]
      }
    }
  ]
}